*******************************************************************************
Ephemeris / MAIL_REQUEST Tue Feb 27 10:53:31 2018 Pasadena, USA  / Horizons
*******************************************************************************
Target body name: Jupiter Barycenter (5)          {source: DE431mx}
Center body name: Solar System Barycenter (0)     {source: DE431mx}
Center-site name: BODY CENTER
*******************************************************************************
Start time      : A.D. 2015-Jan-01 00:00:00.0000 TDB
Stop  time      : A.D. 2026-Jan-23 00:00:00.0000 TDB
Step-size       : 57600 minutes
*******************************************************************************
Center geodetic : 0.00000000,0.00000000,0.0000000 {E-lon(deg),Lat(deg),Alt(km)}
Center cylindric: 0.00000000,0.00000000,0.0000000 {E-lon(deg),Dxy(km),Dz(km)}
Center radii    : (undefined)
Output units    : KM-S
Output type     : GEOMETRIC cartesian states
Output format   : 2 (position and velocity)
Reference frame : ICRF/J2000.0
Coordinate systm: Ecliptic and Mean Equinox of Reference Epoch
*******************************************************************************
JDTDB
   X     Y     Z
   VX    VY    VZ
*******************************************************************************
$$SOE
2458783.500000000 = A.D. 2019-Oct-27 00:00:00.0000 TDB
   4.677695676160309E+06 -7.844488809916500E+08  3.148623713650465E+06
   1.290631691470884E+01  7.009803989649298E-01 -2.916232503578998E-01
2458823.500000000 = A.D. 2019-Dec-06 00:00:00.0000 TDB
   4.924926615331056E+07 -7.807405776761761E+08  2.136168310618937E+06
   1.288031614739531E+01  1.445460979976278E+00 -2.941313884178135E-01
2458863.500000000 = A.D. 2020-Jan-15 00:00:00.0000 TDB
   9.365703139694257E+07 -7.744562419386570E+08  1.116686316044211E+06
   1.281142932959995E+01  2.191338703667133E+00 -2.956858241564703E-01
2458903.500000000 = A.D. 2020-Feb-24 00:00:00.0000 TDB
   1.377518874311922E+08 -7.655952530582459E+08  9.351105724751949E+04
   1.269916310518463E+01  2.936164692987793E+00 -2.962653813869982E-01
2458943.500000000 = A.D. 2020-Apr-04 00:00:00.0000 TDB
   1.813832549402817E+08 -7.541655940038328E+08 -9.299555267750025E+05
   1.254315880641626E+01  3.677409721212463E+00 -2.958515699888353E-01
2458983.500000000 = A.D. 2020-May-14 00:00:00.0000 TDB
   2.243995630930399E+08 -7.401841186159160E+08 -1.950252594438374E+06
   1.234320311630952E+01  4.412470649397855E+00 -2.944288382705185E-01
2459023.500000000 = A.D. 2020-Jun-23 00:00:00.0000 TDB
   2.666487709759239E+08 -7.236767935435681E+08 -2.963871048981488E+06
   1.209923922256833E+01  5.138678371147066E+00 -2.919848627321506E-01
2459063.500000000 = A.D. 2020-Aug-02 00:00:00.0000 TDB
   3.079789281369464E+08 -7.046789121177725E+08 -3.967265194300383E+06
   1.181137805693870E+01  5.853306012363060E+00 -2.885108284835050E-01
2459103.500000000 = A.D. 2020-Sep-11 00:00:00.0000 TDB
   3.482387713903419E+08 -6.832352774040520E+08 -4.956865293818086E+06
   1.147990792868980E+01  6.553579203588988E+00 -2.840016855197045E-01
2459143.500000000 = A.D. 2020-Oct-21 00:00:00.0000 TDB
   3.872783544075291E+08 -6.594003437513188E+08 -5.929091092204779E+06
   1.110530432951101E+01  7.236689272826711E+00 -2.784564423621814E-01
2459183.500000000 = A.D. 2020-Nov-30 00:00:00.0000 TDB
   4.249497119170093E+08 -6.332383128756566E+08 -6.880366274356931E+06
   1.068823968324209E+01  7.899806298236879E+00 -2.718784087083392E-01
2459223.500000000 = A.D. 2021-Jan-09 00:00:00.0000 TDB
   4.611075544825581E+08 -6.048231826224791E+08 -7.807133737599999E+06
   1.022959128264101E+01  8.540093796565285E+00 -2.642754343350688E-01
2459263.500000000 = A.D. 2021-Feb-18 00:00:00.0000 TDB
   4.956099885130143E+08 -5.742387411536100E+08 -8.705871703501433E+06
   9.730448105363134E+00  9.154725443463546E+00 -2.556601496631306E-01
2459303.500000000 = A.D. 2021-Mar-30 00:00:00.0000 TDB
   5.283192583581418E+08 -5.415785017595685E+08 -9.573110592001021E+06
   9.192116594280012E+00  9.740902556498174E+00 -2.460501567614402E-01
2459343.500000000 = A.D. 2021-May-09 00:00:00.0000 TDB
   5.591025040108575E+08 -5.069455751614045E+08 -1.040545045313671E+07
   8.616123751249201E+00  1.029587318113601E+01 -2.354681749788261E-01
2459383.500000000 = A.D. 2021-Jun-18 00:00:00.0000 TDB
   5.878325265932509E+08 -4.704524719478941E+08 -1.119957891560718E+07
   8.004218954002305E+00  1.081695297383570E+01 -2.239421852061234E-01
2459423.500000000 = A.D. 2021-Jul-28 00:00:00.0000 TDB
   6.143885581336296E+08 -4.322208334092661E+08 -1.195228950857979E+07
   7.358374202258872E+00  1.130154579086876E+01 -2.115054988708178E-01
2459463.500000000 = A.D. 2021-Sep-06 00:00:00.0000 TDB
   6.386570271326312E+08 -3.923810899481184E+08 -1.266050015687084E+07
   6.680781452659970E+00  1.174716512348791E+01 -1.981967984153208E-01
2459503.500000000 = A.D. 2021-Oct-16 00:00:00.0000 TDB
   6.605323102388965E+08 -3.510720442091340E+08 -1.332127176275408E+07
   5.973847267801758E+00  1.215145614016700E+01 -1.840601339115473E-01
2459543.500000000 = A.D. 2021-Nov-25 00:00:00.0000 TDB
   6.799174612922772E+08 -3.084403776396113E+08 -1.393182659335986E+07
   5.240185119098898E+00  1.251221782511332E+01 -1.691448124372803E-01
2459583.500000000 = A.D. 2022-Jan-04 00:00:00.0000 TDB
   6.967249088764006E+08 -2.646400811599072E+08 -1.448956619396077E+07
   4.482604701791576E+00  1.282742484718367E+01 -1.535052529381593E-01
2459623.500000000 = A.D. 2022-Feb-13 00:00:00.0000 TDB
   7.108771128931967E+08 -2.198318104870557E+08 -1.499208877716322E+07
   3.704099276177721E+00  1.309524899277437E+01 -1.372008106248446E-01
2459663.500000000 = A.D. 2022-Mar-25 00:00:00.0000 TDB
   7.223071740805055E+08 -1.741821708712464E+08 -1.543720583760300E+07
   2.907830626397283E+00  1.331407858902086E+01 -1.202955066840508E-01
2459703.500000000 = A.D. 2022-May-04 00:00:00.0000 TDB
   7.309593848955927E+08 -1.278629366524742E+08 -1.582295771965937E+07
   2.097110292231593E+00  1.348253693388606E+01 -1.028576957780771E-01
2459743.500000000 = A.D. 2022-Jun-13 00:00:00.0000 TDB
   7.367897112305515E+08 -8.105020903239405E+07 -1.614762793055894E+07
   1.275378607260021E+00  1.359949945566964E+01 -8.495967081021583E-02
2459783.500000000 = A.D. 2022-Jul-23 00:00:00.0000 TDB
   7.397661997340033E+08 -3.392351853928385E+07 -1.640975597069430E+07
   4.461825465574273E-01  1.366410830301804E+01 -6.667720252565701E-02
2459823.500000000 = A.D. 2022-Sep-01 00:00:00.0000 TDB
   7.398693039442289E+08  1.333511760070716E+07 -1.660814850823412E+07
  -3.868493793491978E-01  1.367578411566935E+01 -4.808904668271818E-02
2459863.500000000 = A.D. 2022-Oct-11 00:00:00.0000 TDB
   7.370921206925284E+08  6.054217590994082E+07 -1.674188878772900E+07
  -1.220033218092833E+00  1.363423592619038E+01 -2.927641038718676E-02
2459903.500000000 = A.D. 2022-Nov-20 00:00:00.0000 TDB
   7.314405364805467E+08  1.075136344938187E+08 -1.681034411244000E+07
  -2.049656196031818E+00  1.353946688296037E+01 -1.032236978879730E-02
2459943.500000000 = A.D. 2022-Dec-30 00:00:00.0000 TDB
   7.229332767659504E+08  1.540659946703596E+08 -1.681317119863673E+07
  -2.872006126793405E+00  1.339177691999842E+01  8.688777876215248E-03
2459983.500000000 = A.D. 2023-Feb-08 00:00:00.0000 TDB
   7.116018531936424E+08  2.000173083782914E+08 -1.675031926046875E+07
  -3.683400427772390E+00  1.319176328472898E+01  2.767216669428318E-02
2460023.500000000 = A.D. 2023-Mar-20 00:00:00.0000 TDB
   6.974904140260137E+08  2.451882013365139E+08 -1.662203088182910E+07
  -4.480213352219855E+00  1.294031721612983E+01  4.654299184480237E-02
2460063.500000000 = A.D. 2023-Apr-29 00:00:00.0000 TDB
   6.806554995070541E+08  2.894028767995104E+08 -1.642884072196579E+07
  -5.258904161082888E+00  1.263861634752068E+01  6.521714298617631E-02
2460103.500000000 = A.D. 2023-Jun-08 00:00:00.0000 TDB
   6.611656999217918E+08  3.324900892863540E+08 -1.617157195946440E+07
  -6.016044461610710E+00  1.228811503787187E+01  8.361187240109835E-02
2460143.500000000 = A.D. 2023-Jul-18 00:00:00.0000 TDB
   6.391012239387559E+08  3.742840794585277E+08 -1.585133049155037E+07
  -6.748343141484854E+00  1.189053128700112E+01  1.016464172143774E-01
2460183.500000000 = A.D. 2023-Aug-27 00:00:00.0000 TDB
   6.145533822321640E+08  4.146254579413199E+08 -1.546949704789460E+07
  -7.452670421427384E+00  1.144783053531967E+01  1.192425913035713E-01
2460223.500000000 = A.D. 2023-Oct-06 00:00:00.0000 TDB
   5.876239912712944E+08  4.533620297751078E+08 -1.502771728953487E+07
  -8.126079691693953E+00  1.096220768060411E+01  1.363253550912802E-01
2460263.500000000 = A.D. 2023-Nov-15 00:00:00.0000 TDB
   5.584247079457196E+08  4.903495541838130E+08 -1.452789005541867E+07
  -8.765825599420499E+00  1.043606739999901E+01  1.528233041523648E-01
2460303.500000000 = A.D. 2023-Dec-25 00:00:00.0000 TDB
   5.270763061475094E+08  5.254524307242167E+08 -1.397215406920317E+07
  -9.369380100341576E+00  9.872001204872356E+00  1.686690977965366E-01
2460343.500000000 = A.D. 2024-Feb-03 00:00:00.0000 TDB
   4.937078999616361E+08  5.585443038542495E+08 -1.336287308873895E+07
  -9.934446783734444E+00  9.272763738734742E+00  1.837999165540247E-01
2460383.500000000 = A.D. 2024-Mar-14 00:00:00.0000 TDB
   4.584561243007247E+08  5.895085857833338E+08 -1.270261968236315E+07
  -1.045897115800091E+01  8.641248916449880E+00  1.981577829794214E-01
2460423.500000000 = A.D. 2024-Apr-23 00:00:00.0000 TDB
   4.214642854713902E+08  6.182388949308163E+08 -1.199415806834805E+07
  -1.094114797570585E+01  7.980464990226225E+00  2.116898062777763E-01
2460463.500000000 = A.D. 2024-Jun-02 00:00:00.0000 TDB
   3.828814907665670E+08  6.446394078285828E+08 -1.124042613246414E+07
  -1.137942595472245E+01  7.293509665708601E+00  2.243484081018718E-01
2460503.500000000 = A.D. 2024-Jul-12 00:00:00.0000 TDB
   3.428617675226726E+08  6.686251264375064E+08 -1.044451680096039E+07
  -1.177250907674065E+01  6.583545858468590E+00  2.360914559882472E-01
